0 FENGYUN 1C DEB
1 32183U 99025CUD 13282.40764126  .00000478  00000-0  33329-3 0  3185
2 32183 099.1367 336.5465 0043681 249.2169 168.5987 14.03196429319580
0 FENGYUN 1C DEB
1 32183U 99025CUD 13287.39896072  .00000874  00000-0  58533-3 0  3201
2 32183 099.1360 341.5576 0044159 235.4384 182.2961 14.03200321320280
0 FENGYUN 1C DEB
1 32183U 99025CUD 13290.39366035  .00001088  00000-0  72115-3 0  3217
2 32183 099.1356 344.5641 0044380 227.2638 190.0126 14.03206555320700
0 FENGYUN 1C DEB
1 32183U 99025CUD 13293.38861405  .00001183  00000-0  78114-3 0  3222
2 32183 099.1357 347.5705 0044539 219.0651 199.0967 14.03212579321127
